CCSDS_OMM_VERS = 2.0
CREATION_DATE  = 
ORIGINATOR     = 

OBJECT_NAME    = STARLINK-36296
OBJECT_ID      = 2026-063A
CENTER_NAME    = EARTH
REF_FRAME      = TEME
TIME_SYSTEM    = UTC
MEAN_ELEMENT_THEORY = SGP/SGP4

EPOCH          = 2026-04-05T12:00:02.998944
MEAN_MOTION    = 15.98128030
ECCENTRICITY   = .0001458
INCLINATION    = 97.2832
RA_OF_ASC_NODE = 236.5173
ARG_OF_PERICENTER = 10.4178
MEAN_ANOMALY   = 91.0485

EPHEMERIS_TYPE = 0
CLASSIFICATION_TYPE = U
NORAD_CAT_ID   = 68380
ELEMENT_SET_NO = 999
REV_AT_EPOCH   = 276
BSTAR          = .10202E-2
MEAN_MOTION_DOT = .464473E-2
MEAN_MOTION_DDOT = .92625E-4

CCSDS_OMM_VERS = 2.0
CREATION_DATE  = 
ORIGINATOR     = 

OBJECT_NAME    = STARLINK-37111
OBJECT_ID      = 2026-063B
CENTER_NAME    = EARTH
REF_FRAME      = TEME
TIME_SYSTEM    = UTC
MEAN_ELEMENT_THEORY = SGP/SGP4

EPOCH          = 2026-04-05T12:00:02.998944
MEAN_MOTION    = 15.87768822
ECCENTRICITY   = .0001434
INCLINATION    = 97.2835
RA_OF_ASC_NODE = 236.5017
ARG_OF_PERICENTER = 52.0202
MEAN_ANOMALY   = 12.9609

EPHEMERIS_TYPE = 0
CLASSIFICATION_TYPE = U
NORAD_CAT_ID   = 68381
ELEMENT_SET_NO = 999
REV_AT_EPOCH   = 276
BSTAR          = -.82708E-2
MEAN_MOTION_DOT = -.1885742E-1
MEAN_MOTION_DDOT = 0

CCSDS_OMM_VERS = 2.0
CREATION_DATE  = 
ORIGINATOR     = 

OBJECT_NAME    = STARLINK-36946
OBJECT_ID      = 2026-063C
CENTER_NAME    = EARTH
REF_FRAME      = TEME
TIME_SYSTEM    = UTC
MEAN_ELEMENT_THEORY = SGP/SGP4

EPOCH          = 2026-04-05T12:00:02.998944
MEAN_MOTION    = 15.87881004
ECCENTRICITY   = .0001574
INCLINATION    = 97.2826
RA_OF_ASC_NODE = 236.5024
ARG_OF_PERICENTER = 60.0505
MEAN_ANOMALY   = 8.5910

EPHEMERIS_TYPE = 0
CLASSIFICATION_TYPE = U
NORAD_CAT_ID   = 68382
ELEMENT_SET_NO = 999
REV_AT_EPOCH   = 276
BSTAR          = -.82443E-2
MEAN_MOTION_DOT = -.1889756E-1
MEAN_MOTION_DDOT = 0

CCSDS_OMM_VERS = 2.0
CREATION_DATE  = 
ORIGINATOR     = 

OBJECT_NAME    = STARLINK-37121
OBJECT_ID      = 2026-063D
CENTER_NAME    = EARTH
REF_FRAME      = TEME
TIME_SYSTEM    = UTC
MEAN_ELEMENT_THEORY = SGP/SGP4

EPOCH          = 2026-04-05T12:00:02.998944
MEAN_MOTION    = 15.88118893
ECCENTRICITY   = .0001572
INCLINATION    = 97.2828
RA_OF_ASC_NODE = 236.5063
ARG_OF_PERICENTER = 55.6232
MEAN_ANOMALY   = 20.1755

EPHEMERIS_TYPE = 0
CLASSIFICATION_TYPE = U
NORAD_CAT_ID   = 68383
ELEMENT_SET_NO = 999
REV_AT_EPOCH   = 276
BSTAR          = -.81821E-2
MEAN_MOTION_DOT = -.1896699E-1
MEAN_MOTION_DDOT = 0

CCSDS_OMM_VERS = 2.0
CREATION_DATE  = 
ORIGINATOR     = 

OBJECT_NAME    = STARLINK-37137
OBJECT_ID      = 2026-063E
CENTER_NAME    = EARTH
REF_FRAME      = TEME
TIME_SYSTEM    = UTC
MEAN_ELEMENT_THEORY = SGP/SGP4

EPOCH          = 2026-04-05T12:00:02.998944
MEAN_MOTION    = 15.88024300
ECCENTRICITY   = .000158
INCLINATION    = 97.2829
RA_OF_ASC_NODE = 236.5044
ARG_OF_PERICENTER = 53.2057
MEAN_ANOMALY   = 18.8312

EPHEMERIS_TYPE = 0
CLASSIFICATION_TYPE = U
NORAD_CAT_ID   = 68384
ELEMENT_SET_NO = 999
REV_AT_EPOCH   = 276
BSTAR          = -.82021E-2
MEAN_MOTION_DOT = -.1893029E-1
MEAN_MOTION_DDOT = 0

CCSDS_OMM_VERS = 2.0
CREATION_DATE  = 
ORIGINATOR     = 

OBJECT_NAME    = STARLINK-37128
OBJECT_ID      = 2026-063F
CENTER_NAME    = EARTH
REF_FRAME      = TEME
TIME_SYSTEM    = UTC
MEAN_ELEMENT_THEORY = SGP/SGP4

EPOCH          = 2026-04-05T12:00:02.998944
MEAN_MOTION    = 15.88220420
ECCENTRICITY   = .0001669
INCLINATION    = 97.2827
RA_OF_ASC_NODE = 236.5078
ARG_OF_PERICENTER = 54.8995
MEAN_ANOMALY   = 24.6741

EPHEMERIS_TYPE = 0
CLASSIFICATION_TYPE = U
NORAD_CAT_ID   = 68385
ELEMENT_SET_NO = 999
REV_AT_EPOCH   = 271
BSTAR          = -.82201E-2
MEAN_MOTION_DOT = -.1912485E-1
MEAN_MOTION_DDOT = 0

CCSDS_OMM_VERS = 2.0
CREATION_DATE  = 
ORIGINATOR     = 

OBJECT_NAME    = STARLINK-37198
OBJECT_ID      = 2026-063G
CENTER_NAME    = EARTH
REF_FRAME      = TEME
TIME_SYSTEM    = UTC
MEAN_ELEMENT_THEORY = SGP/SGP4

EPOCH          = 2026-04-05T12:00:02.998944
MEAN_MOTION    = 15.88351269
ECCENTRICITY   = .0001649
INCLINATION    = 97.2824
RA_OF_ASC_NODE = 236.5090
ARG_OF_PERICENTER = 53.6673
MEAN_ANOMALY   = 29.2598

EPHEMERIS_TYPE = 0
CLASSIFICATION_TYPE = U
NORAD_CAT_ID   = 68386
ELEMENT_SET_NO = 999
REV_AT_EPOCH   = 276
BSTAR          = -.80898E-2
MEAN_MOTION_DOT = -.1897304E-1
MEAN_MOTION_DDOT = 0

CCSDS_OMM_VERS = 2.0
CREATION_DATE  = 
ORIGINATOR     = 

OBJECT_NAME    = STARLINK-37223
OBJECT_ID      = 2026-063H
CENTER_NAME    = EARTH
REF_FRAME      = TEME
TIME_SYSTEM    = UTC
MEAN_ELEMENT_THEORY = SGP/SGP4

EPOCH          = 2026-04-05T12:00:02.998944
MEAN_MOTION    = 15.88459361
ECCENTRICITY   = .0001557
INCLINATION    = 97.2822
RA_OF_ASC_NODE = 236.5107
ARG_OF_PERICENTER = 58.8077
MEAN_ANOMALY   = 27.7464

EPHEMERIS_TYPE = 0
CLASSIFICATION_TYPE = U
NORAD_CAT_ID   = 68387
ELEMENT_SET_NO = 999
REV_AT_EPOCH   = 276
BSTAR          = -.80403E-2
MEAN_MOTION_DOT = -.1896066E-1
MEAN_MOTION_DDOT = 0

CCSDS_OMM_VERS = 2.0
CREATION_DATE  = 
ORIGINATOR     = 

OBJECT_NAME    = STARLINK-37203
OBJECT_ID      = 2026-063J
CENTER_NAME    = EARTH
REF_FRAME      = TEME
TIME_SYSTEM    = UTC
MEAN_ELEMENT_THEORY = SGP/SGP4

EPOCH          = 2026-04-05T12:00:02.998944
MEAN_MOTION    = 15.88563708
ECCENTRICITY   = .0001534
INCLINATION    = 97.2820
RA_OF_ASC_NODE = 236.5118
ARG_OF_PERICENTER = 61.9560
MEAN_ANOMALY   = 28.3008

EPHEMERIS_TYPE = 0
CLASSIFICATION_TYPE = U
NORAD_CAT_ID   = 68388
ELEMENT_SET_NO = 999
REV_AT_EPOCH   = 276
BSTAR          = -.80391E-2
MEAN_MOTION_DOT = -.190423E-1
MEAN_MOTION_DDOT = 0

CCSDS_OMM_VERS = 2.0
CREATION_DATE  = 
ORIGINATOR     = 

OBJECT_NAME    = STARLINK-37197
OBJECT_ID      = 2026-063K
CENTER_NAME    = EARTH
REF_FRAME      = TEME
TIME_SYSTEM    = UTC
MEAN_ELEMENT_THEORY = SGP/SGP4

EPOCH          = 2026-04-05T12:00:02.998944
MEAN_MOTION    = 15.88824226
ECCENTRICITY   = .0001823
INCLINATION    = 97.2819
RA_OF_ASC_NODE = 236.5151
ARG_OF_PERICENTER = 55.4124
MEAN_ANOMALY   = 41.7317

EPHEMERIS_TYPE = 0
CLASSIFICATION_TYPE = U
NORAD_CAT_ID   = 68389
ELEMENT_SET_NO = 999
REV_AT_EPOCH   = 276
BSTAR          = -.79892E-2
MEAN_MOTION_DOT = -.1915789E-1
MEAN_MOTION_DDOT = 0

CCSDS_OMM_VERS = 2.0
CREATION_DATE  = 
ORIGINATOR     = 

OBJECT_NAME    = STARLINK-37193
OBJECT_ID      = 2026-063L
CENTER_NAME    = EARTH
REF_FRAME      = TEME
TIME_SYSTEM    = UTC
MEAN_ELEMENT_THEORY = SGP/SGP4

EPOCH          = 2026-04-05T02:10:55.786080
MEAN_MOTION    = 16.06884715
ECCENTRICITY   = .00011961
INCLINATION    = 97.2818
RA_OF_ASC_NODE = 236.1140
ARG_OF_PERICENTER = 324.7874
MEAN_ANOMALY   = 35.3329

EPHEMERIS_TYPE = 0
CLASSIFICATION_TYPE = U
NORAD_CAT_ID   = 68390
ELEMENT_SET_NO = 999
REV_AT_EPOCH   = 179
BSTAR          = .12559922E-2
MEAN_MOTION_DOT = .948776E-2
MEAN_MOTION_DDOT = .49539881E-3

CCSDS_OMM_VERS = 2.0
CREATION_DATE  = 
ORIGINATOR     = 

OBJECT_NAME    = STARLINK-37216
OBJECT_ID      = 2026-063M
CENTER_NAME    = EARTH
REF_FRAME      = TEME
TIME_SYSTEM    = UTC
MEAN_ELEMENT_THEORY = SGP/SGP4

EPOCH          = 2026-04-05T12:00:02.998944
MEAN_MOTION    = 15.88957849
ECCENTRICITY   = .0001702
INCLINATION    = 97.2817
RA_OF_ASC_NODE = 236.5164
ARG_OF_PERICENTER = 61.5407
MEAN_ANOMALY   = 39.0103

EPHEMERIS_TYPE = 0
CLASSIFICATION_TYPE = U
NORAD_CAT_ID   = 68391
ELEMENT_SET_NO = 999
REV_AT_EPOCH   = 276
BSTAR          = -.79714E-2
MEAN_MOTION_DOT = -.1922951E-1
MEAN_MOTION_DDOT = 0

