STARLINK-36296          
1 68380U 26063A   26095.50003471  .00464473  92625-4  10202-2 0  9997
2 68380  97.2832 236.5173 0001458  10.4178  91.0485 15.98128030  2763
STARLINK-37111          
1 68381U 26063B   26095.50003471 -.01885742  00000+0 -82708-2 0  9998
2 68381  97.2835 236.5017 0001434  52.0202  12.9609 15.87768822  2765
STARLINK-36946          
1 68382U 26063C   26095.50003471 -.01889756  00000+0 -82443-2 0  9994
2 68382  97.2826 236.5024 0001574  60.0505   8.5910 15.87881004  2768
STARLINK-37121          
1 68383U 26063D   26095.50003471 -.01896699  00000+0 -81821-2 0  9998
2 68383  97.2828 236.5063 0001572  55.6232  20.1755 15.88118893  2766
STARLINK-37137          
1 68384U 26063E   26095.50003471 -.01893029  00000+0 -82021-2 0  9996
2 68384  97.2829 236.5044 0001580  53.2057  18.8312 15.88024300  2767
STARLINK-37128          
1 68385U 26063F   26095.50003471 -.01912485  00000+0 -82201-2 0  9995
2 68385  97.2827 236.5078 0001669  54.8995  24.6741 15.88220420  2716
STARLINK-37198          
1 68386U 26063G   26095.50003471 -.01897304  00000+0 -80898-2 0  9998
2 68386  97.2824 236.5090 0001649  53.6673  29.2598 15.88351269  2768
STARLINK-37223          
1 68387U 26063H   26095.50003471 -.01896066  00000+0 -80403-2 0  9995
2 68387  97.2822 236.5107 0001557  58.8077  27.7464 15.88459361  2766
STARLINK-37203          
1 68388U 26063J   26095.50003471 -.01904230  00000+0 -80391-2 0  9995
2 68388  97.2820 236.5118 0001534  61.9560  28.3008 15.88563708  2766
STARLINK-37197          
1 68389U 26063K   26095.50003471 -.01915789  00000+0 -79892-2 0  9991
2 68389  97.2819 236.5151 0001823  55.4124  41.7317 15.88824226  2764
STARLINK-37193          
1 68390U 26063L   26095.09092345  .00948776  49540-3  12560-2 0  9999
2 68390  97.2818 236.1140 0001196 324.7874  35.3329 16.06884715  1790
STARLINK-37216          
1 68391U 26063M   26095.50003471 -.01922951  00000+0 -79714-2 0  9996
2 68391  97.2817 236.5164 0001702  61.5407  39.0103 15.88957849  2768
